{"type": "FeatureCollection", "features": [ {"type": "Feature", "properties": {"norad_id": 34909, "name": "COSMOS 2251 DEB", "group": "cosmos-2251-debris", "lat": -51.08634163981566, "lon": 52.675991648838355, "alt_km": 649.508017930807, "timestamp": "2025-12-14T07:33:19.874609+00:00", "meta": {"OBJECT_NAME": "COSMOS 2251 DEB", "OBJECT_ID": "1993-036ADE", "EPOCH": "2025-12-13T12:18:21.051360", "MEAN_MOTION": 14.77848388, "ECCENTRICITY": 0.00844579, "INCLINATION": 74.0144, "RA_OF_ASC_NODE": 75.0514, "ARG_OF_PERICENTER": 210.7068, "MEAN_ANOMALY": 148.9152, "EPHEMERIS_TYPE": 0, "CLASSIFICATION_TYPE": "U", "NORAD_CAT_ID": 34909, "ELEMENT_SET_NO": 999, "REV_AT_EPOCH": 66863, "BSTAR": 0.000958712, "MEAN_MOTION_DOT": 7.287e-05, "MEAN_MOTION_DDOT": 0}, "tle": {"line1": "1 34909U 93036ADE 25347.51274365  .00007287  00000+0  95871-3 0  9996", "line2": "2 34909  74.0144  75.0514 0084457 210.7068 148.9152 14.77848388668638"}}, "geometry": {"type": "Point", "coordinates": [52.675991648838355, -51.08634163981566]}}, {"type": "Feature", "properties": {"norad_id": 34910, "name": "COSMOS 2251 DEB", "group": "cosmos-2251-debris", "lat": -5.314877048139222, "lon": -79.51906146327737, "alt_km": 819.5935132063642, "timestamp": "2025-12-14T07:33:19.874620+00:00", "meta": {"OBJECT_NAME": "COSMOS 2251 DEB", "OBJECT_ID": "1993-036ADF", "EPOCH": "2025-12-13T14:33:30.777408", "MEAN_MOTION": 13.37685021, "ECCENTRICITY": 0.04682159, "INCLINATION": 73.876, "RA_OF_ASC_NODE": 100.0561, "ARG_OF_PERICENTER": 218.8737, "MEAN_ANOMALY": 160.0706, "EPHEMERIS_TYPE": 0, "CLASSIFICATION_TYPE": "U", "NORAD_CAT_ID": 34910, "ELEMENT_SET_NO": 999, "REV_AT_EPOCH": 81536, "BSTAR": 0.0017010511, "MEAN_MOTION_DOT": 1.661e-05, "MEAN_MOTION_DDOT": 0}, "tle": {"line1": "1 34910U 93036ADF 25347.60660622  .00001661  00000+0  17011-2 0  9992", "line2": "2 34910  73.8760 100.0561 0468215 218.8737 160.0706 13.37685021815364"}}, "geometry": {"type": "Point", "coordinates": [-79.51906146327737, -5.314877048139222]}}, {"type": "Feature", "properties": {"norad_id": 34911, "name": "COSMOS 2251 DEB", "group": "cosmos-2251-debris", "lat": -60.38018214995271, "lon": -148.47742783870427, "alt_km": 682.6678181576999, "timestamp": "2025-12-14T07:33:19.874631+00:00", "meta": {"OBJECT_NAME": "COSMOS 2251 DEB", "OBJECT_ID": "1993-036ADG", "EPOCH": "2025-12-13T11:16:26.849280", "MEAN_MOTION": 14.59374488, "ECCENTRICITY": 0.00836226, "INCLINATION": 74.041, "RA_OF_ASC_NODE": 243.3529, "ARG_OF_PERICENTER": 8.556, "MEAN_ANOMALY": 169.7858, "EPHEMERIS_TYPE": 0, "CLASSIFICATION_TYPE": "U", "NORAD_CAT_ID": 34911, "ELEMENT_SET_NO": 999, "REV_AT_EPOCH": 88597, "BSTAR": 0.0002543266, "MEAN_MOTION_DOT": 1.232e-05, "MEAN_MOTION_DDOT": 0}, "tle": {"line1": "1 34911U 93036ADG 25347.46975520  .00001232  00000+0  25433-3 0  9995", "line2": "2 34911  74.0410 243.3529 0083622   8.5560 169.7858 14.59374488885973"}}, "geometry": {"type": "Point", "coordinates": [-148.47742783870427, -60.38018214995271]}}, {"type": "Feature", "properties": {"norad_id": 34913, "name": "COSMOS 2251 DEB", "group": "cosmos-2251-debris", "lat": 19.77769107751866, "lon": 93.70061558222254, "alt_km": 785.3726347764323, "timestamp": "2025-12-14T07:33:19.874641+00:00", "meta": {"OBJECT_NAME": "COSMOS 2251 DEB", "OBJECT_ID": "1993-036ADJ", "EPOCH": "2025-12-13T12:56:38.472288", "MEAN_MOTION": 14.34637945, "ECCENTRICITY": 0.00203757, "INCLINATION": 74.0284, "RA_OF_ASC_NODE": 281.0321, "ARG_OF_PERICENTER": 30.7723, "MEAN_ANOMALY": 84.8293, "EPHEMERIS_TYPE": 0, "CLASSIFICATION_TYPE": "U", "NORAD_CAT_ID": 34913, "ELEMENT_SET_NO": 999, "REV_AT_EPOCH": 65199, "BSTAR": 8.4132523e-05, "MEAN_MOTION_DOT": 2.12e-06, "MEAN_MOTION_DDOT": 0}, "tle": {"line1": "1 34913U 93036ADJ 25347.53933417  .00000212  00000+0  84133-4 0  9994", "line2": "2 34913  74.0284 281.0321 0020375  30.7723  84.8293 14.34637945651993"}}, "geometry": {"type": "Point", "coordinates": [93.70061558222254, 19.77769107751866]}}, {"type": "Feature", "properties": {"norad_id": 34918, "name": "COSMOS 2251 DEB", "group": "cosmos-2251-debris", "lat": 72.96331799654621, "lon": 61.87814320495385, "alt_km": 705.7172027820416, "timestamp": "2025-12-14T07:33:19.874651+00:00", "meta": {"OBJECT_NAME": "COSMOS 2251 DEB", "OBJECT_ID": "1993-036ADP", "EPOCH": "2025-12-10T06:27:09.237024", "MEAN_MOTION": 14.6111897, "ECCENTRICITY": 0.0033898, "INCLINATION": 74.0712, "RA_OF_ASC_NODE": 318.3402, "ARG_OF_PERICENTER": 286.4186, "MEAN_ANOMALY": 135.6409, "EPHEMERIS_TYPE": 0, "CLASSIFICATION_TYPE": "U", "NORAD_CAT_ID": 34918, "ELEMENT_SET_NO": 999, "REV_AT_EPOCH": 65300, "BSTAR": 0.0032517, "MEAN_MOTION_DOT": 0.00016131, "MEAN_MOTION_DDOT": 0}, "tle": {"line1": "1 34918U 93036ADP 25344.26885691  .00016131  00000+0  32517-2 0  9990", "line2": "2 34918  74.0712 318.3402 0033898 286.4186 135.6409 14.61118970653005"}}, "geometry": {"type": "Point", "coordinates": [61.87814320495385, 72.96331799654621]}}, {"type": "Feature", "properties": {"norad_id": 34924, "name": "COSMOS 2251 DEB", "group": "cosmos-2251-debris", "lat": 73.24976716697017, "lon": 158.40106966599822, "alt_km": 682.6023027183601, "timestamp": "2025-12-14T07:33:19.874662+00:00", "meta": {"OBJECT_NAME": "COSMOS 2251 DEB", "OBJECT_ID": "1993-036ADV", "EPOCH": "2025-12-13T16:54:59.320800", "MEAN_MOTION": 14.60046512, "ECCENTRICITY": 0.0054282, "INCLINATION": 74.0404, "RA_OF_ASC_NODE": 87.6063, "ARG_OF_PERICENTER": 171.9978, "MEAN_ANOMALY": 308.7691, "EPHEMERIS_TYPE": 0, "CLASSIFICATION_TYPE": "U", "NORAD_CAT_ID": 34924, "ELEMENT_SET_NO": 999, "REV_AT_EPOCH": 87737, "BSTAR": 0.0011982701, "MEAN_MOTION_DOT": 5.851e-05, "MEAN_MOTION_DDOT": 0}, "tle": {"line1": "1 34924U 93036ADV 25347.70485325  .00005851  00000+0  11983-2 0  9990", "line2": "2 34924  74.0404  87.6063 0054282 171.9978 308.7691 14.60046512877371"}}, "geometry": {"type": "Point", "coordinates": [158.40106966599822, 73.24976716697017]}}, {"type": "Feature", "properties": {"norad_id": 34944, "name": "COSMOS 2251 DEB", "group": "cosmos-2251-debris", "lat": -64.54701729850919, "lon": -168.59045915428217, "alt_km": 983.4235850424993, "timestamp": "2025-12-14T07:33:19.874673+00:00", "meta": {"OBJECT_NAME": "COSMOS 2251 DEB", "OBJECT_ID": "1993-036ADX", "EPOCH": "2025-12-07T09:30:46.029312", "MEAN_MOTION": 14.14167925, "ECCENTRICITY": 0.02195348, "INCLINATION": 73.7495, "RA_OF_ASC_NODE": 241.6775, "ARG_OF_PERICENTER": 90.2413, "MEAN_ANOMALY": 272.3884, "EPHEMERIS_TYPE": 0, "CLASSIFICATION_TYPE": "U", "NORAD_CAT_ID": 34944, "ELEMENT_SET_NO": 999, "REV_AT_EPOCH": 64007, "BSTAR": 0.00099492053, "MEAN_MOTION_DOT": 2.364e-05, "MEAN_MOTION_DDOT": 0}, "tle": {"line1": "1 34944U 93036ADX 25341.39636608  .00002364  00000+0  99492-3 0  9991", "line2": "2 34944  73.7495 241.6775 0219534  90.2413 272.3884 14.14167925640077"}}, "geometry": {"type": "Point", "coordinates": [-168.59045915428217, -64.54701729850919]}}, {"type": "Feature", "properties": {"norad_id": 34946, "name": "COSMOS 2251 DEB", "group": "cosmos-2251-debris", "lat": -55.41077863759733, "lon": -45.44939996987711, "alt_km": 727.6257585996782, "timestamp": "2025-12-14T07:33:19.874683+00:00", "meta": {"OBJECT_NAME": "COSMOS 2251 DEB", "OBJECT_ID": "1993-036ADZ", "EPOCH": "2025-12-11T09:12:32.820480", "MEAN_MOTION": 14.61985522, "ECCENTRICITY": 0.0048688, "INCLINATION": 74.0237, "RA_OF_ASC_NODE": 344.7115, "ARG_OF_PERICENTER": 122.3418, "MEAN_ANOMALY": 238.2476, "EPHEMERIS_TYPE": 0, "CLASSIFICATION_TYPE": "U", "NORAD_CAT_ID": 34946, "ELEMENT_SET_NO": 999, "REV_AT_EPOCH": 88189, "BSTAR": 0.00095647955, "MEAN_MOTION_DOT": 4.849e-05, "MEAN_MOTION_DDOT": 0}, "tle": {"line1": "1 34946U 93036ADZ 25345.38371320  .00004849  00000+0  95648-3 0  9992", "line2": "2 34946  74.0237 344.7115 0048688 122.3418 238.2476 14.61985522881890"}}, "geometry": {"type": "Point", "coordinates": [-45.44939996987711, -55.41077863759733]}}, {"type": "Feature", "properties": {"norad_id": 34949, "name": "COSMOS 2251 DEB", "group": "cosmos-2251-debris", "lat": -73.77295823373777, "lon": 6.561657824847779, "alt_km": 600.8305665557937, "timestamp": "2025-12-14T07:33:19.874693+00:00", "meta": {"OBJECT_NAME": "COSMOS 2251 DEB", "OBJECT_ID": "1993-036AEC", "EPOCH": "2025-12-13T14:03:18.975456", "MEAN_MOTION": 14.7400778, "ECCENTRICITY": 0.00803606, "INCLINATION": 74.0178, "RA_OF_ASC_NODE": 108.0039, "ARG_OF_PERICENTER": 253.1588, "MEAN_ANOMALY": 106.076, "EPHEMERIS_TYPE": 0, "CLASSIFICATION_TYPE": "U", "NORAD_CAT_ID": 34949, "ELEMENT_SET_NO": 999, "REV_AT_EPOCH": 88374, "BSTAR": 0.00068611441, "MEAN_MOTION_DOT": 4.718e-05, "MEAN_MOTION_DDOT": 0}, "tle": {"line1": "1 34949U 93036AEC 25347.58563629  .00004718  00000+0  68611-3 0  9999", "line2": "2 34949  74.0178 108.0039 0080360 253.1588 106.0760 14.74007780883746"}}, "geometry": {"type": "Point", "coordinates": [6.561657824847779, -73.77295823373777]}}, {"type": "Feature", "properties": {"norad_id": 34953, "name": "COSMOS 2251 DEB", "group": "cosmos-2251-debris", "lat": -32.15788717252339, "lon": -145.21978684738218, "alt_km": 709.0554711761188, "timestamp": "2025-12-14T07:33:19.874703+00:00", "meta": {"OBJECT_NAME": "COSMOS 2251 DEB", "OBJECT_ID": "1993-036AEG", "EPOCH": "2025-12-13T09:25:34.265280", "MEAN_MOTION": 14.68970859, "ECCENTRICITY": 0.00580699, "INCLINATION": 74.0936, "RA_OF_ASC_NODE": 26.2298, "ARG_OF_PERICENTER": 18.0798, "MEAN_ANOMALY": 1.5276, "EPHEMERIS_TYPE": 0, "CLASSIFICATION_TYPE": "U", "NORAD_CAT_ID": 34953, "ELEMENT_SET_NO": 999, "REV_AT_EPOCH": 88138, "BSTAR": 0.0012684571, "MEAN_MOTION_DOT": 7.601e-05, "MEAN_MOTION_DDOT": 0}, "tle": {"line1": "1 34953U 93036AEG 25347.39275770  .00007601  00000+0  12685-2 0  9993", "line2": "2 34953  74.0936  26.2298 0058069  18.0798   1.5276 14.68970859881381"}}, "geometry": {"type": "Point", "coordinates": [-145.21978684738218, -32.15788717252339]}}]}